stk.v.11.0

# WrittenBy    STK_v11.0.0

BEGIN Ephemeris

NumberOfEphemerisPoints 1441

ScenarioEpoch            24 Jun 2017 16:00:00.000000

# Epoch in JDate format: 2457929.16666666666667
# Epoch in YYDDD format:   17175.66666666666667


InterpolationMethod     Lagrange

InterpolationSamplesM1      5

CentralBody             Earth

CoordinateSystem        J2000 

# Time of first point: 24 Jun 2017 16:00:00.000000000 UTCG = 2457929.16666666666667 JDate = 17175.66666666666667 YYDDD

EphemerisTimePosVel

1.44000000000000e+004 -5.22453718701854e+006 -4.27752989375091e+006 1.20306833703501e-002 4.86360819706077e+003 -5.95621823286108e+003 3.49043418071206e-005
1.44600000000000e+004 -4.91986585530744e+006 -4.62563182252463e+006 1.41611388516172e-002 5.25888481681923e+003 -5.60930906613202e+003 3.40264858163962e-005
1.45200000000000e+004 -4.59214501777277e+006 -4.95206304886688e+006 1.62421395707730e-002 5.62941280451404e+003 -5.23622531015151e+003 3.29801950206496e-005
1.45800000000000e+004 -4.24291648719001e+006 -5.25530124527462e+006 1.82633567925623e-002 5.97346397731990e+003 -4.83873780909236e+003 3.17692007166538e-005
1.46400000000000e+004 -3.87382226307344e+006 -5.53393410225336e+006 2.02146736695816e-002 6.28943787640510e+003 -4.41873095751615e+003 3.03980602277263e-005
1.47000000000000e+004 -3.48659662061120e+006 -5.78666588172187e+006 2.20862342075465e-002 6.57586915379710e+003 -3.97819333302272e+003 2.88721371106858e-005
1.47600000000000e+004 -3.08305777626785e+006 -6.01232339238749e+006 2.38684951009245e-002 6.83143425055777e+003 -3.51920785959082e+003 2.71975806563646e-005
1.48200000000000e+004 -2.66509917356607e+006 -6.20986136053868e+006 2.55522720910567e-002 7.05495733826466e+003 -3.04394155809464e+003 2.53812980419888e-005
1.48800000000000e+004 -2.23468043408817e+006 -6.37836717314954e+006 2.71287914576663e-002 7.24541550066120e+003 -2.55463494183374e+003 2.34309264859295e-005
1.49400000000000e+004 -1.79381801999362e+006 -6.51706497369488e+006 2.85897266372703e-002 7.40194313719994e+003 -2.05359111582914e+003 2.13547951678451e-005
1.50000000000000e+004 -1.34457565529581e+006 -6.62531909462909e+006 2.99272496152793e-002 7.52383557504089e+003 -1.54316463908861e+003 1.91618918727763e-005
1.50600000000000e+004 -8.89054553812516e+005 -6.70263681404467e+006 3.11340665992338e-002 7.61055188081440e+003 -1.02575020907975e+003 1.68618200958150e-005
1.51200000000000e+004 -4.29383502081046e+005 -6.74867042758280e+006 3.22034596360660e-002 7.66171686808979e+003 -5.03771227263608e+002 1.44647564107509e-005
1.51800000000000e+004 3.22911543514493e+004 -6.76321863018667e+006 3.31293207630756e-002 7.67712230095783e+003 2.03316962046020e+001 1.19814031794066e-005
1.52400000000000e+004 4.93815573016282e+005 -6.74622720575443e+006 3.39061834032406e-002 7.65672729841618e+003 5.44112241622708e+002 9.42293976262843e-006
1.53000000000000e+004 9.53038477141145e+005 -6.69778902613508e+006 3.45292564469964e-002 7.60065794830393e+003 1.06512982716987e+003 6.80097101993975e-006
1.53600000000000e+004 1.40782117159600e+006 -6.61814336420430e+006 3.49944466897913e-002 7.50920614334847e+003 1.58096095076691e+003 4.12747401326292e-006
1.54200000000000e+004 1.85604746582221e+006 -6.50767452893999e+006 3.52983883321503e-002 7.38282765544506e+003 2.08921037447103e+003 1.41474164170891e-006
1.54800000000000e+004 2.29563345847856e+006 -6.36690983347520e+006 3.54384547631097e-002 7.22213946757180e+003 2.58752210168802e+003 -1.32467220643616e-006
1.55400000000000e+004 2.72453713978785e+006 -6.19651691002905e+006 3.54127844489524e-002 7.02791638574721e+003 3.07359009982120e+003 -4.07801316585537e-006
1.56000000000000e+004 3.14076776900439e+006 -5.99730038839304e+006 3.52202875206846e-002 6.80108695615552e+003 3.54516872346892e+003 -6.83238339006516e-006
1.56600000000000e+004 3.54239498600769e+006 -5.77019795727313e+006 3.48606586960341e-002 6.54272871500020e+003 4.00008279587227e+003 -9.57480224693082e-006
1.57200000000000e+004 3.92755761774962e+006 -5.51627583025564e+006 3.43343849142826e-002 6.25406280080593e+003 4.43623730897591e+003 -1.22922681535396e-005
1.57800000000000e+004 4.29447214213111e+006 -5.23672364046744e+006 3.36427418599273e-002 5.93644796077719e+003 4.85162670517500e+003 -1.49718146639705e-005
1.58400000000000e+004 4.64144077383442e+006 -4.93284879014339e+006 3.27878002583658e-002 5.59137398445594e+003 5.24434370654013e+003 -1.76005766361670e-005
1.59000000000000e+004 4.96685913868371e+006 -4.60607028328760e+006 3.17724161159519e-002 5.22045459930792e+003 5.61258766002845e+003 -2.01658468324444e-005
1.59600000000000e+004 5.26922350521977e+006 -4.25791207143608e+006 3.06002219345268e-002 4.82541986404002e+003 5.95467236986143e+003 -2.26551345449751e-005
1.60200000000000e+004 5.54713754436604e+006 -3.88999594417693e+006 2.92756162081457e-002 4.40810809640471e+003 6.26903339089035e+003 -2.50562259716204e-005
1.60800000000000e+004 5.79931859029414e+006 -3.50403399758743e+006 2.78037475528420e-002 3.97045737302713e+003 6.55423475933117e+003 -2.73572423746095e-005
1.61400000000000e+004 6.02460337787841e+006 -3.10182071508905e+006 2.61904946827225e-002 3.51449663939578e+003 6.80897513974723e+003 -2.95466955284869e-005
1.62000000000000e+004 6.22195323443362e+006 -2.68522469642852e+006 2.44424430532637e-002 3.04233646863316e+003 7.03209336956130e+003 -3.16135416697371e-005
1.62600000000000e+004 6.39045870577283e+006 -2.25618007153588e+006 2.25668598343858e-002 2.55615950799174e+003 7.22257338470984e+003 -3.35472371883105e-005
1.63200000000000e+004 6.52934359896492e+006 -1.81667763694608e+006 2.05716628965011e-002 2.05821065227944e+003 7.37954851227590e+003 -3.53377865181958e-005
1.63800000000000e+004 6.63796842654342e+006 -1.36875575324217e+006 1.84653885112265e-002 1.55078698355982e+003 7.50230511809345e+003 -3.69757904408939e-005
1.64400000000000e+004 6.71583323928348e+006 -9.14491042653746e+005 1.62571571317229e-002 1.03622751658044e+003 7.59028559937477e+003 -3.84525008016084e-005
1.65000000000000e+004 6.76257983704452e+006 -4.55988926467677e+005 1.39566321353948e-002 5.16902789409209e+002 7.64309071440969e+003 -3.97598507053097e-005
1.65600000000000e+004 6.77799334954869e+006 4.62595765547648e+003 1.15739806936968e-002 -4.79566121753250e+000 7.66048124330655e+003 -4.08905113071425e-005
1.66200000000000e+004 6.76200318134543e+006 4.65219418076191e+005 9.11982843113002e-003 -5.26465900367192e+002 7.64237897562064e+003 -4.18379163257729e-005
1.66800000000000e+004 6.71468331758486e+006 9.23657410685096e+005 6.60521352296395e-003 -1.04570623174720e+003 7.58886702254415e+003 -4.25963080920561e-005
1.67400000000000e+004 6.63625198959778e+006 1.37781573886332e+006 4.04153800939278e-003 -1.56012583151247e+003 7.50018945313613e+003 -4.31607632008828e-005
1.68000000000000e+004 6.52707070164865e+006 1.82558971123777e+006 1.44051737582651e-003 -2.06735533968058e+003 7.37675025586057e+003 -4.35272227035384e-005
1.68600000000000e+004 6.38764262259644e+006 2.26490371671423e+006 -1.18587194866504e-003 -2.56505736985260e+003 7.21911162849177e+003 -4.36925179797833e-005
1.69200000000000e+004 6.21861034856135e+006 2.69372067650611e+006 -3.82544710701671e-003 -3.05093689799265e+003 7.02799160125424e+003 -4.36543935046568e-005
1.69800000000000e+004 6.02075304505584e+006 3.11005133322629e+006 -6.46587448666547e-003 -3.52275149108989e+003 6.80426099990139e+003 -4.34115239406483e-005
1.70400000000000e+004 5.79498297939359e+006 3.51196333756909e+006 -9.09472396390476e-003 -3.97832133661689e+003 6.54893975731814e+003 -4.29635231135971e-005
1.71000000000000e+004 5.54234145653962e+006 3.89759009368273e+006 -1.16995300054372e-002 -4.41553903381483e+003 6.26319258416946e+003 -4.23109621465124e-005
1.71600000000000e+004 5.26399417390488e+006 4.26513932502880e+006 -1.42678469166484e-002 -4.83237910800092e+003 5.94832401111686e+003 -4.14553685501907e-005
1.72200000000000e+004 4.96122601291678e+006 4.61290132334086e+006 -1.67873085598020e-002 -5.22690720931155e+003 5.60577281719848e+003 -4.03992303993368e-005
1.72800000000000e+004 4.63543528751432e+006 4.93925684423373e+006 -1.92456876373930e-002 -5.59728895758250e+003 5.23710586112498e+003 -3.91459939089964e-005
1.73400000000000e+004 4.28812747200548e+006 5.24268461409622e+006 -2.16309515887061e-002 -5.94179839545856e+003 4.84401133447492e+003 -3.77000532730837e-005
1.74000000000000e+004 3.92090843299690e+006 5.52176841410659e+006 -2.39313258274594e-002 -6.25882601231400e+003 4.42829145809578e+003 -3.60667444386507e-005
1.74600000000000e+004 3.53547719233200e+006 5.77520370857063e+006 -2.61353457617874e-002 -6.54688630220024e+003 3.99185464540755e+003 -3.42523235499423e-005
1.75200000000000e+004 3.13361825017376e+006 6.00180378627541e+006 -2.82319171615441e-002 -6.80462481980843e+003 3.53670715878540e+003 -3.22639502198258e-005
1.75800000000000e+004 2.71719349949907e+006 6.20050538521012e+006 -3.02103698844127e-002 -7.03082469939551e+003 3.06494428772375e+003 -3.01096611839491e-005
1.76400000000000e+004 2.28813376535253e+006 6.37037377280646e+006 -3.20605123946895e-002 -7.22441260276390e+003 2.57874108007459e+003 -2.77983417076933e-005
1.77000000000000e+004 1.84843000420487e+006 6.51060725581547e+006 -3.37726839868362e-002 -7.38446406374584e+003 2.08034266026856e+003 -2.53396920478588e-005
1.77600000000000e+004 1.40012420067445e+006 6.62054109605662e+006 -3.53378048100654e-002 -7.51020819823020e+003 1.57205417106238e+003 -2.27441896629287e-005
1.78200000000000e+004 9.45300000679832e+005 6.69965081055372e+006 -3.67474254282901e-002 -7.60103175060358e+003 1.05623037798177e+003 -2.00230476563694e-005
1.78800000000000e+004 4.86073121779920e+005 6.74755483700821e+006 -3.79937689973603e-002 -7.65648244956917e+003 5.35264978216243e+002 -1.71881679787089e-005
1.79400000000000e+004 2.45815830157200e+004 6.76401654814949e+006 -3.90697741686603e-002 -7.67627164866628e+003 1.15796582491059e+001 -1.42520923568916e-005
END Ephemeris
